{
    "links": {
        "self": "http://www.neowsapp.com/rest/v1/neo/3585469?api_key=iIulBulltgU6a56xZRHN4H3l9WmuAYTsLGpBGhQ2"
    },
    "id": "3585469",
    "neo_reference_id": "3585469",
    "name": "(2011 VB)",
    "designation": "2011 VB",
    "nasa_jpl_url": "http://ssd.jpl.nasa.gov/sbdb.cgi?sstr=3585469",
    "absolute_magnitude_h": 24.9,
    "estimated_diameter": {
        "kilometers": {
            "estimated_diameter_min": 0.0278326768,
            "estimated_diameter_max": 0.0622357573
        },
        "meters": {
            "estimated_diameter_min": 27.8326768072,
            "estimated_diameter_max": 62.2357573367
        },
        "miles": {
            "estimated_diameter_min": 0.0172944182,
            "estimated_diameter_max": 0.0386714948
        },
        "feet": {
            "estimated_diameter_min": 91.3145593761,
            "estimated_diameter_max": 204.1855621004
        }
    },
    "is_potentially_hazardous_asteroid": false,
    "close_approach_data": [
        {
            "close_approach_date": "2011-11-10",
            "close_approach_date_full": "2011-Nov-10 04:40",
            "epoch_date_close_approach": 1320900000000,
            "relative_velocity": {
                "kilometers_per_second": "7.1666490688",
                "kilometers_per_hour": "25799.9366478538",
                "miles_per_hour": "16031.0773021067"
            },
            "miss_distance": {
                "astronomical": "0.0556387577",
                "lunar": "21.6434767453",
                "kilometers": "8323439.641366099",
                "miles": "5171945.5668422062"
            },
            "orbiting_body": "Earth"
        },
        {
            "close_approach_date": "2018-08-29",
            "close_approach_date_full": "2018-Aug-29 19:24",
            "epoch_date_close_approach": 1535570640000,
            "relative_velocity": {
                "kilometers_per_second": "3.9974187603",
                "kilometers_per_hour": "14390.7075371339",
                "miles_per_hour": "8941.8260249485"
            },
            "miss_distance": {
                "astronomical": "0.9989255006",
                "lunar": "388.5820197334",
                "kilometers": "149437127.178443722",
                "miles": "92855925.0422264836"
            },
            "orbiting_body": "Juptr"
        }
    ],
    "orbital_data": {
        "orbit_id": "12",
        "orbit_determination_date": "2017-04-06 08:52:06",
        "first_observation_date": "2011-11-01",
        "last_observation_date": "2011-12-02",
        "data_arc_in_days": 31,
        "observations_used": 51,
        "orbit_uncertainty": "7",
        "minimum_orbit_intersection": ".0796398",
        "jupiter_tisserand_invariant": "3.046",
        "epoch_osculation": "2459000.5",
        "eccentricity": ".6115562569757101",
        "semi_major_axis": "2.741979769931988",
        "inclination": "1.387660157556767",
        "ascending_node_longitude": "293.9350516662303",
        "orbital_period": "1658.421029991303",
        "perihelion_distance": "1.065104885129262",
        "perihelion_argument": "120.223540700497",
        "aphelion_distance": "4.418854654734713",
        "perihelion_time": "2459198.895874736364",
        "mean_anomaly": "316.9334242550786",
        "mean_motion": ".2170739477428647",
        "equinox": "J2000",
        "orbit_class": {
            "orbit_class_type": "AMO",
            "orbit_class_description": "Near-Earth asteroid orbits similar to that of 1221 Amor",
            "orbit_class_range": "1.017 AU < q (perihelion) < 1.3 AU"
        }
    },
    "is_sentry_object": false
}